Skip Page Navigation
NASA Logo - Jet Propulsion Laboratory				+ View the NASA Portal
+ Center for Near-Earth Object Studies			
JPL Home	Earth	Solar System	Stars & Galaxies	Technology

JPL Solar System Dynamics
BODIES		ORBITS		EPHEMERIDES		TOOLS		PHYSICAL DATA		DISCOVERY		FAQ		SITE MAP

IMPORTANT: The SSD Announcement email list is now available. Major changes are coming in the near future, including possible hostname and/or URL changes. To be notified of such changes, subscribe to this email list.

Please visit this page for more details.


Don't show this message again
HORIZONS Web-Interface
This tool provides a web-based limited interface to JPL's HORIZONS system which can be used to generate ephemerides for solar-system bodies. Full access to HORIZONS features is available via the primary telnet interface. HORIZONS system news shows recent changes and improvements. A web-interface tutorial is available to assist new users.
Current Settings
Ephemeris Type [change] : 	ELEMENTS
Target Body [change] : 	Iapetus (SVIII) [608]
Center [change] : 	Saturn System Barycenter [500@6]
Time Span [change] : 	Start=JD 2458850.0, Stop=JD 2464329.0, Intervals=500
Table Settings [change] : 	CSV format=YES
Display/Output [change] : 	default (formatted HTML)
Object Data Page
 Revised: Jan 23, 2020             Iapetus / (Saturn)                       608
                          http://ssd.jpl.nasa.gov/?sat_phys_par
                            http://ssd.jpl.nasa.gov/?sat_elem

 SATELLITE PHYSICAL PROPERTIES:
  Radius (km)            = 734.5    +- 4.0    Density (g/cm^3)=  1.088 +- 0.018 
  Mass (10^19 kg)        = 180.59             Geometric Albedo=  0.6
  GM (km^3/s^2)          = 120.51   +- 0.03   V(1,0)          =   +1.5 (.7-2.5)

 SATELLITE ORBITAL DATA (mean values with respect to local Laplace plane):
  Semi-major axis, a (km)= 3560.84 (10^3)     Orbital period    = 79.33 d
  Eccentricity, e        =     0.0283         Rotational period = Synchronous
  Inclination, i  (deg)  =     7.489
Results
*******************************************************************************
Ephemeris / WWW_USER Fri May 15 20:15:16 2020 Pasadena, USA      / Horizons    
*******************************************************************************
Target body name: Iapetus (608)                   {source: sat427l_merged_DE438}
Center body name: Saturn Barycenter (6)           {source: sat427l_merged_DE438}
Center-site name: BODY CENTER
*******************************************************************************
Start time      : A.D. 2020-Jan-01 12:00:00.0000 TDB
Stop  time      : A.D. 2035-Jan-01 12:00:00.0000 TDB
Step-size       : 500 steps
*******************************************************************************
Center geodetic : 0.00000000,0.00000000,0.0000000 {E-lon(deg),Lat(deg),Alt(km)}
Center cylindric: 0.00000000,0.00000000,0.0000000 {E-lon(deg),Dxy(km),Dz(km)}
Center radii    : (undefined)                                                  
Keplerian GM    : 8.4596254634776490E-08 au^3/d^2
Output units    : AU-D, deg, Julian Day Number (Tp)                            
Output type     : GEOMETRIC osculating elements
Output format   : 10
Reference frame : ICRF/J2000.0                                                 
Coordinate systm: Ecliptic and Mean Equinox of Reference Epoch                 
*******************************************************************************
            JDTDB,            Calendar Date (TDB),                     EC,                     QR,                     IN,                     OM,                      W,                     Tp,                      N,                     MA,                     TA,                      A,                     AD,                     PR,
**************************************************************************************************************************************************************************************************************************************************************************************************************************************************
$$SOE
2462016.862000000, A.D. 2028-Sep-02 08:41:16.8000,  2.857756285456235E-02,  2.312451273731696E-02,  1.692732865836073E+01,  1.387244002053550E+02,  2.331215308720502E+02,  2.462050731468328E+06,  4.537341946229214E+00,  2.063226406600621E+02,  2.049157796971697E+02,  2.380479578510585E-02,  2.448507883289473E-02,  7.934160666448783E+01,
2462027.820000000, A.D. 2028-Sep-13 07:40:48.0000,  2.861655372083651E-02,  2.312095800635839E-02,  1.692742132602297E+01,  1.387201984309660E+02,  2.333831257473910E+02,  2.462050784658896E+06,  4.538115137294965E+00,  2.557837338444701E+02,  2.526342181422766E+02,  2.380209184634768E-02,  2.448322568633697E-02,  7.932808866867693E+01,
2462038.778000000, A.D. 2028-Sep-24 06:40:19.2000,  2.866777361560821E-02,  2.311840050339185E-02,  1.692727531380709E+01,  1.387200865313151E+02,  2.335356332331163E+02,  2.462050815171082E+06,  4.538509221451183E+00,  3.053691880461261E+02,  3.026347493799266E+02,  2.380071398376836E-02,  2.448302746414487E-02,  7.932120051634276E+01,
2462049.736000000, A.D. 2028-Oct-05 05:39:50.4000,  2.879833093153163E-02,  2.311847878527818E-02,  1.692585021270573E+01,  1.387176615349279E+02,  2.334725247810317E+02,  2.462050801172777E+06,  4.537571169576892E+00,  3.551667027156717E+02,  3.548783236092431E+02,  2.380399408441334E-02,  2.448950938354849E-02,  7.933759858439166E+01,
2462060.694000000, A.D. 2028-Oct-16 04:39:21.6000,  2.882578670896011E-02,  2.311802346833152E-02,  1.692532485883989E+01,  1.387118674352207E+02,  2.333426876225722E+02,  2.462050773084354E+06,  4.537512804260841E+00,  4.501628177409686E+01,  4.741295351007802E+01,  2.380419820867253E-02,  2.449037294901353E-02,  7.933861909148790E+01,
2462071.652000000, A.D. 2028-Oct-27 03:38:52.8000,  2.876985838856817E-02,  2.311647532731618E-02,  1.692539193406019E+01,  1.387106465162979E+02,  2.331078759465026E+02,  2.462050723629909E+06,  4.538360643601469E+00,  9.498049115715372E+01,  9.825282384743588E+01,  2.380123344294290E-02,  2.448599155856962E-02,  7.932379735126510E+01,
2462082.610000000, A.D. 2028-Nov-07 02:38:24.0000,  2.868815467022854E-02,  2.311907727991746E-02,  1.692474879631852E+01,  1.387104861774984E+02,  2.330841847852049E+02,  2.462050715433677E+06,  4.538167098354291E+00,  1.447428715031240E+02,  1.465861617624259E+02,  2.380191016003544E-02,  2.448474304015342E-02,  7.932718037873694E+01,
2462093.568000000, A.D. 2028-Nov-18 01:37:55.2000,  2.855851366228266E-02,  2.312497211598032E-02,  1.692314846548533E+01,  1.387054088133034E+02,  2.331636355116098E+02,  2.462130067098236E+06,  4.537340204908817E+00,  1.943911741309826E+02,  1.936050523772088E+02,  2.380480187557176E-02,  2.448463163516321E-02,  7.934163711385943E+01,
2462104.526000000, A.D. 2028-Nov-29 00:37:26.4000,  2.854771707183984E-02,  2.312388285379345E-02,  1.692311539911895E+01,  1.386989687402311E+02,  2.333713279522150E+02,  2.462130110957277E+06,  4.537736456720880E+00,  2.439022066184667E+02,  2.410110656592737E+02,  2.380341604025391E-02,  2.448294922671437E-02,  7.933470871072757E+01,
2462115.484000000, A.D. 2028-Dec-09 23:36:57.6000,  2.860072831712885E-02,  2.311978810846724E-02,  1.692319744537564E+01,  1.386986731660941E+02,  2.336087949640528E+02,  2.462130158359908E+06,  4.538570504067694E+00,  2.933993829563890E+02,  2.903496658197535E+02,  2.380049973520575E-02,  2.448121136194426E-02,  7.932012947190088E+01,
2462126.442000000, A.D. 2028-Dec-20 22:36:28.8000,  2.869630617349934E-02,  2.311934927894147E-02,  1.692196569647615E+01,  1.386972920835807E+02,  2.335791113498423E+02,  2.462130151236587E+06,  4.538029884220011E+00,  3.431673735216010E+02,  3.421813855724875E+02,  2.380238994856656E-02,  2.448543061819165E-02,  7.932957895491607E+01,
2462137.400000000, A.D. 2028-Dec-31 21:36:00.0000,  2.879197753285162E-02,  2.311906433066755E-02,  1.692112419065076E+01,  1.386916278027982E+02,  2.334795086984767E+02,  2.462130129349428E+06,  4.537443307613296E+00,  3.299016478069032E+01,  3.484214862446320E+01,  2.380444126886272E-02,  2.448981820705790E-02,  7.933983426216308E+01,
2462148.358000000, A.D. 2029-Jan-11 20:35:31.2000,  2.874859894823010E-02,  2.311734990751693E-02,  1.692121171044812E+01,  1.386890997835338E+02,  2.332353767282905E+02,  2.462130077839385E+06,  4.538252105698914E+00,  8.295997740412933E+01,  8.624215169920933E+01,  2.380161293202060E-02,  2.448587595652426E-02,  7.932569447782102E+01,
2462159.316000000, A.D. 2029-Jan-22 19:35:02.4000,  2.870000464759335E-02,  2.311785665811569E-02,  1.692091460819885E+01,  1.386890116351953E+02,  2.331286784166901E+02,  2.462130053723000E+06,  4.538443471037762E+00,  1.328051900019574E+02,  1.351599289962717E+02,  2.380094385744136E-02,  2.448403105676703E-02,  7.932234967723025E+01,
2462170.274000000, A.D. 2029-Feb-02 18:34:33.6000,  2.855967793097482E-02,  2.312441979197105E-02,  1.691942647438453E+01,  1.386855102895951E+02,  2.331866335964481E+02,  2.462209396799794E+06,  4.537494609358482E+00,  1.824805068301656E+02,  1.823437504516550E+02,  2.380426184360912E-02,  2.448410389524720E-02,  7.933893723146423E+01,
2462181.232000000, A.D. 2029-Feb-13 17:34:04.8000,  2.850912210966213E-02,  2.312596253781372E-02,  1.691899107259075E+01,  1.386787187520068E+02,  2.333320988491555E+02,  2.462209430345702E+06,  4.537394749216770E+00,  2.320529742784614E+02,  2.295328606501846E+02,  2.380461110250815E-02,  2.448325966720258E-02,  7.934068334304436E+01,
2462192.190000000, A.D. 2029-Feb-24 16:33:36.0000,  2.855140096240317E-02,  2.312168576533288E-02,  1.691930193355361E+01,  1.386766632206876E+02,  2.336147147578154E+02,  2.462209487332800E+06,  4.538357439751105E+00,  2.814985209980206E+02,  2.782711787730932E+02,  2.380124464458468E-02,  2.448080352383647E-02,  7.932385334984617E+01,
